[
    {
        "Altitude(m)": 605459.043682626,
        "Argument of Periapsis(deg)": 0.0,
        "Eccentricity": 0.0,
        "Inclination(deg)": 60.0,
        "Latitude(deg)": 27.98826233128066,
        "Longitude(deg)": 22.798528783757238,
        "Mean Anomaly(deg)": 32.727299999999985,
        "RAAN(deg)": 105.0,
        "Satellite Name": "Test1 464",
        "Satellite Number": 464,
        "Semi-Major Axis(m)": 6980739.136638005,
        "Time(s)": 0
    },
    {
        "Altitude(m)": 605535.8350860174,
        "Argument of Periapsis(deg)": 0.00010418945913296404,
        "Eccentricity": 0.0,
        "Inclination(deg)": 60.0,
        "Latitude(deg)": 28.501392497574916,
        "Longitude(deg)": 23.15547280845046,
        "Mean Anomaly(deg)": 33.347406145461825,
        "RAAN(deg)": 104.99957995086028,
        "Satellite Name": "Test1 464",
        "Satellite Number": 464,
        "Semi-Major Axis(m)": 6980739.136638005,
        "Time(s)": 10
    }
]